{
  "type": "FeatureCollection",
  "features": [
    {
      "type": "Feature",
      "properties": {
        "norad_id": 34389,
        "name": "COSMOS 2251 DEB",
        "group": "cosmos-2251-debris",
        "lat": -66.83954581056882,
        "lon": -167.8701646213045,
        "alt_km": 749.0570214825566,
        "timestamp": "2025-12-21T03:56:51.227019+00:00",
        "meta_object_name": "COSMOS 2251 DEB",
        "meta_object_id": "1993-036QE",
        "meta_epoch": "2025-12-20T18:35:05.205120",
        "meta_mean_motion": 14.41550145,
        "meta_eccentricity": 0.002927,
        "meta_inclination": 74.018,
        "meta_ra_of_asc_node": 234.9158,
        "meta_arg_of_pericenter": 345.4835,
        "meta_mean_anomaly": 78.0925,
        "meta_ephemeris_type": 0,
        "meta_classification_type": "U",
        "meta_norad_cat_id": 34389,
        "meta_element_set_no": 999,
        "meta_rev_at_epoch": 88128,
        "meta_bstar": 0.00022772,
        "meta_mean_motion_dot": 7.17e-06,
        "meta_mean_motion_ddot": 0,
        "tle_line1": "1 34389U 93036QE  25354.77436580  .00000717  00000+0  22772-3 0  9994",
        "tle_line2": "2 34389  74.0180 234.9158 0029270 345.4835  78.0925 14.41550145881281"
      },
      "geometry": {
        "type": "Point",
        "coordinates": [
          -167.8701646213045,
          -66.83954581056882
        ]
      }
    },
    {
      "type": "Feature",
      "properties": {
        "norad_id": 34396,
        "name": "COSMOS 2251 DEB",
        "group": "cosmos-2251-debris",
        "lat": 46.395840907506035,
        "lon": -89.92305794102761,
        "alt_km": 638.4108742780772,
        "timestamp": "2025-12-21T03:56:51.227029+00:00",
        "meta_object_name": "COSMOS 2251 DEB",
        "meta_object_id": "1993-036QM",
        "meta_epoch": "2025-12-19T10:59:32.903808",
        "meta_mean_motion": 14.74585964,
        "meta_eccentricity": 0.0005236,
        "meta_inclination": 74.0293,
        "meta_ra_of_asc_node": 110.9085,
        "meta_arg_of_pericenter": 149.4452,
        "meta_mean_anomaly": 286.5385,
        "meta_ephemeris_type": 0,
        "meta_classification_type": "U",
        "meta_norad_cat_id": 34396,
        "meta_element_set_no": 999,
        "meta_rev_at_epoch": 88445,
        "meta_bstar": 0.0013068,
        "meta_mean_motion_dot": 8.688e-05,
        "meta_mean_motion_ddot": 0,
        "tle_line1": "1 34396U 93036QM  25353.45801972  .00008688  00000+0  13068-2 0  9999",
        "tle_line2": "2 34396  74.0293 110.9085 0005236 149.4452 286.5385 14.74585964884450"
      },
      "geometry": {
        "type": "Point",
        "coordinates": [
          -89.92305794102761,
          46.395840907506035
        ]
      }
    },
    {
      "type": "Feature",
      "properties": {
        "norad_id": 34400,
        "name": "COSMOS 2251 DEB",
        "group": "cosmos-2251-debris",
        "lat": 41.32238726054407,
        "lon": 19.2960324222532,
        "alt_km": 394.7484748921561,
        "timestamp": "2025-12-21T03:56:51.227038+00:00",
        "meta_object_name": "COSMOS 2251 DEB",
        "meta_object_id": "1993-036QR",
        "meta_epoch": "2025-12-20T10:47:50.834688",
        "meta_mean_motion": 15.56772051,
        "meta_eccentricity": 0.00032397,
        "meta_inclination": 73.9626,
        "meta_ra_of_asc_node": 6.2364,
        "meta_arg_of_pericenter": 243.0216,
        "meta_mean_anomaly": 117.067,
        "meta_ephemeris_type": 0,
        "meta_classification_type": "U",
        "meta_norad_cat_id": 34400,
        "meta_element_set_no": 999,
        "meta_rev_at_epoch": 90094,
        "meta_bstar": 0.0025923117,
        "meta_mean_motion_dot": 0.00190148,
        "meta_mean_motion_ddot": 0,
        "tle_line1": "1 34400U 93036QR  25354.44989392  .00190148  00000+0  25923-2 0  9994",
        "tle_line2": "2 34400  73.9626   6.2364 0003239 243.0216 117.0670 15.56772051900945"
      },
      "geometry": {
        "type": "Point",
        "coordinates": [
          19.2960324222532,
          41.32238726054407
        ]
      }
    },
    {
      "type": "Feature",
      "properties": {
        "norad_id": 34409,
        "name": "COSMOS 2251 DEB",
        "group": "cosmos-2251-debris",
        "lat": -57.46071290402463,
        "lon": 137.4422490713226,
        "alt_km": 735.7905970794773,
        "timestamp": "2025-12-21T03:56:51.227047+00:00",
        "meta_object_name": "COSMOS 2251 DEB",
        "meta_object_id": "1993-036RA",
        "meta_epoch": "2025-12-20T06:01:18.579072",
        "meta_mean_motion": 14.58044298,
        "meta_eccentricity": 0.0080201,
        "meta_inclination": 74.0635,
        "meta_ra_of_asc_node": 292.5717,
        "meta_arg_of_pericenter": 4.9327,
        "meta_mean_anomaly": 123.7099,
        "meta_ephemeris_type": 0,
        "meta_classification_type": "U",
        "meta_norad_cat_id": 34409,
        "meta_element_set_no": 999,
        "meta_rev_at_epoch": 89302,
        "meta_bstar": 0.00018555,
        "meta_mean_motion_dot": 8.6e-06,
        "meta_mean_motion_ddot": 0,
        "tle_line1": "1 34409U 93036RA  25354.25090948  .00000860  00000+0  18555-3 0  9997",
        "tle_line2": "2 34409  74.0635 292.5717 0080201   4.9327 123.7099 14.58044298893024"
      },
      "geometry": {
        "type": "Point",
        "coordinates": [
          137.4422490713226,
          -57.46071290402463
        ]
      }
    },
    {
      "type": "Feature",
      "properties": {
        "norad_id": 34410,
        "name": "COSMOS 2251 DEB",
        "group": "cosmos-2251-debris",
        "lat": -21.475396308429072,
        "lon": -122.81603135055379,
        "alt_km": 516.0084442453899,
        "timestamp": "2025-12-21T03:56:51.227056+00:00",
        "meta_object_name": "COSMOS 2251 DEB",
        "meta_object_id": "1993-036RB",
        "meta_epoch": "2025-12-20T18:49:52.621248",
        "meta_mean_motion": 15.19619754,
        "meta_eccentricity": 0.0021439,
        "meta_inclination": 73.7373,
        "meta_ra_of_asc_node": 244.5885,
        "meta_arg_of_pericenter": 84.7448,
        "meta_mean_anomaly": 336.0615,
        "meta_ephemeris_type": 0,
        "meta_classification_type": "U",
        "meta_norad_cat_id": 34410,
        "meta_element_set_no": 999,
        "meta_rev_at_epoch": 89896,
        "meta_bstar": 0.0013209,
        "meta_mean_motion_dot": 0.00028386,
        "meta_mean_motion_ddot": 0,
        "tle_line1": "1 34410U 93036RB  25354.78463682  .00028386  00000+0  13209-2 0  9999",
        "tle_line2": "2 34410  73.7373 244.5885 0021439  84.7448 336.0615 15.19619754898966"
      },
      "geometry": {
        "type": "Point",
        "coordinates": [
          -122.81603135055379,
          -21.475396308429072
        ]
      }
    },
    {
      "type": "Feature",
      "properties": {
        "norad_id": 34412,
        "name": "COSMOS 2251 DEB",
        "group": "cosmos-2251-debris",
        "lat": 51.790838872377655,
        "lon": 107.31257579773718,
        "alt_km": 711.3059801266936,
        "timestamp": "2025-12-21T03:56:51.227066+00:00",
        "meta_object_name": "COSMOS 2251 DEB",
        "meta_object_id": "1993-036RD",
        "meta_epoch": "2025-12-20T04:09:43.065504",
        "meta_mean_motion": 14.47216204,
        "meta_eccentricity": 0.01874651,
        "meta_inclination": 73.9488,
        "meta_ra_of_asc_node": 310.6286,
        "meta_arg_of_pericenter": 43.9727,
        "meta_mean_anomaly": 317.6172,
        "meta_ephemeris_type": 0,
        "meta_classification_type": "U",
        "meta_norad_cat_id": 34412,
        "meta_element_set_no": 999,
        "meta_rev_at_epoch": 87758,
        "meta_bstar": 0.0010437522,
        "meta_mean_motion_dot": 4.727e-05,
        "meta_mean_motion_ddot": 0,
        "tle_line1": "1 34412U 93036RD  25354.17341511  .00004727  00000+0  10438-2 0  9994",
        "tle_line2": "2 34412  73.9488 310.6286 0187465  43.9727 317.6172 14.47216204877587"
      },
      "geometry": {
        "type": "Point",
        "coordinates": [
          107.31257579773718,
          51.790838872377655
        ]
      }
    },
    {
      "type": "Feature",
      "properties": {
        "norad_id": 34413,
        "name": "COSMOS 2251 DEB",
        "group": "cosmos-2251-debris",
        "lat": 63.56773440209064,
        "lon": -75.25039128303497,
        "alt_km": 803.5641278517278,
        "timestamp": "2025-12-21T03:56:51.227076+00:00",
        "meta_object_name": "COSMOS 2251 DEB",
        "meta_object_id": "1993-036RE",
        "meta_epoch": "2025-12-19T03:37:01.824384",
        "meta_mean_motion": 14.29145308,
        "meta_eccentricity": 0.00909812,
        "meta_inclination": 74.0307,
        "meta_ra_of_asc_node": 253.2338,
        "meta_arg_of_pericenter": 328.5293,
        "meta_mean_anomaly": 182.5817,
        "meta_ephemeris_type": 0,
        "meta_classification_type": "U",
        "meta_norad_cat_id": 34413,
        "meta_element_set_no": 999,
        "meta_rev_at_epoch": 87222,
        "meta_bstar": 0.0011272931,
        "meta_mean_motion_dot": 2.965e-05,
        "meta_mean_motion_ddot": 0,
        "tle_line1": "1 34413U 93036RE  25353.15071556  .00002965  00000+0  11273-2 0  9991",
        "tle_line2": "2 34413  74.0307 253.2338 0090981 328.5293 182.5817 14.29145308872223"
      },
      "geometry": {
        "type": "Point",
        "coordinates": [
          -75.25039128303497,
          63.56773440209064
        ]
      }
    }
  ]
}